<?xml version="1.0" encoding="UTF-8"?>
<kml xmlns="http://www.opengis.net/kml/2.2" xmlns:gx="http://www.google.com/kml/ext/2.2">
    <Document id="1">
        <Style id="4">
            <LineStyle id="5">
                <color>ff008000</color>
                <colorMode>normal</colorMode>
                <width>5</width>
            </LineStyle>
            <PolyStyle id="6">
                <color>ff00a5ff</color>
                <colorMode>normal</colorMode>
                <fill>1</fill>
                <outline>1</outline>
            </PolyStyle>
        </Style>
        <Placemark id="3">
            <name>LX-187-A</name>
            <styleUrl>#4</styleUrl>
            <LineString id="2">
                <extrude>1</extrude>
                <altitudeMode>relativeToGround</altitudeMode>
                <coordinates>-93.6539552,42.0271913,262.419 -93.6539545,42.0271921,262.22 -93.653953,42.0271879,261.625 -93.6539526,42.0271862,261.175 -93.653953,42.0271853,261.342 -93.6539531,42.027185,261.176 -93.6539547,42.0271833,261.148 -93.6539543,42.0271793,260.9 -93.6539533,42.027177,260.621 -93.6539531,42.0271753,260.48 -93.65395,42.0271775,260.344 -93.6539465,42.0271792,260.205 -93.6539445,42.0271852,261.152 -93.6539442,42.0271914,261.938 -93.6539413,42.0271973,262.691 -93.6539419,42.0271949,262.819 -93.6539452,42.0271971,262.984 -93.6539455,42.0272009,263.23 -93.6539476,42.0272075,264.144 -93.65395,42.0272105,264.208 -93.6539518,42.0272085,263.928 -93.6539521,42.0272076,264.025 -93.653952,42.0272066,263.841 -93.6539498,42.0272025,263.368 -93.6539478,42.0271994,263.103 -93.6539472,42.0271984,262.849 -93.6539464,42.0271977,262.589 -93.653945,42.0271979,262.973 -93.653944,42.0271989,263.214 -93.6539402,42.0272016,263.314 -93.6539364,42.0272045,263.625 -93.6539368,42.027198,263.61 -93.6539359,42.0271973,263.725 -93.6539355,42.0271977,263.89 -93.6539349,42.0271966,263.647 -93.6539343,42.0271959,263.553 -93.6539328,42.0271963,263.738 -93.6539333,42.0271979,263.966 -93.6539348,42.0272002,264.079 -93.6539366,42.0272032,264.531 -93.6539341,42.0272049,264.766 -93.6539343,42.0272017,264.35 -93.6539362,42.0272016,264.169 -93.6539354,42.0272017,264.136 -93.6539359,42.0272026,264.238 -93.6539353,42.027201,264.148 -93.6539361,42.027199,264.049 -93.6539387,42.0272001,264.173 -93.6539389,42.0271964,263.561 -93.6539397,42.027193,263.269 -93.6539405,42.02719,263.016 -93.6539422,42.027189,262.88 -93.6539413,42.0271926,262.556 -93.653947,42.0272029,262.374 -93.6539545,42.0272217,262.188 -93.6539814,42.0272386,262.108 -93.6539991,42.0272564,261.986 -93.6540172,42.0272679,261.791 -93.6540363,42.0272804,261.586 -93.6540528,42.0272997,261.677 -93.6540616,42.0273239,261.566 -93.6540633,42.0273516,261.543 -93.6540621,42.0273807,261.71 -93.6540613,42.0274078,262.223 -93.6540535,42.0274353,263.262 -93.6540466,42.0274603,263.327 -93.6540411,42.0274798,262.893 -93.6540486,42.0274955,262.66 -93.6540479,42.0275187,262.869 -93.6540434,42.027536,262.752 -93.6540434,42.0275405,262.622 -93.6540282,42.0275255,262.881 -93.6540127,42.027521,262.887 -93.6540102,42.0275237,263.349 -93.654008,42.0275259,263.79 -93.654005,42.0275277,263.767 -93.6540034,42.0275299,264.007 -93.6540045,42.0275296,263.927 -93.6540022,42.0275317,264.312 -93.6540019,42.0275339,264.767 -93.6540003,42.0275363,265.279 -93.6539993,42.0275388,265.719 -93.6539987,42.02754,266.176 -93.654,42.0275383,265.903 -93.6539998,42.0275377,265.952 -93.6539992,42.0275361,265.727 -93.654,42.0275346,265.534 -93.6539965,42.0275328,265.54 -93.6539965,42.0275324,265.568 -93.6539975,42.0275321,265.569 -93.6539991,42.0275307,265.447 -93.653999,42.0275313,266.012 -93.6540014,42.0275307,266.187 -93.6540028,42.0275329,266.733 -93.6540044,42.0275329,266.649 -93.6540066,42.0275329,266.558 -93.6540074,42.0275329,265.826 -93.6540094,42.0275351,265.114 -93.6540091,42.0275415,264.672 -93.6540106,42.0275434,264.364 -93.6540128,42.0275443,264.179 -93.654016,42.0275449,263.798 -93.6540162,42.0275448,263.591 -93.6540136,42.0275463,263.087 -93.6540129,42.0275464,262.984 -93.6540134,42.0275454,262.95 -93.6540103,42.0275471,262.572 -93.6540105,42.0275488,262.097 -93.6540101,42.0275524,261.49 -93.6540115,42.0275526,260.726 -93.6540093,42.0275543,260.726 -93.6540077,42.0275567,260.913 -93.6540072,42.0275578,261.513 -93.6540047,42.027559,261.979 -93.654003,42.0275574,263.182 -93.6540035,42.0275565,263.284 -93.6540006,42.0275566,263.381 -93.6539994,42.0275569,263.456 -93.6539966,42.027558,263.583 -93.6539978,42.0275565,264.106 -93.6539977,42.0275571,263.969 -93.6539979,42.0275569,263.613 -93.6539956,42.0275555,269.476 -93.6539798,42.0276269,289.346 -93.654001,42.0277885,308.329 -93.6538168,42.027793,327.54 -93.6537886,42.0278343,350.723 -93.6537344,42.0278211,370.71 -93.6535868,42.027947,391.301 -93.653587,42.0279332,412.101 -93.6533323,42.0279898,430.562 -93.6533301,42.027945,449.264 -93.6531448,42.0280251,467.928 -93.6530076,42.0279138,484.976 -93.6530534,42.0278799,503.312 -93.6529594,42.0279552,520.994 -93.6528589,42.0278481,541.644 -93.6528358,42.0279144,560.904 -93.6525417,42.0278905,577.187 -93.6523869,42.0278354,596.322 -93.6523439,42.0278207,617.345 -93.6522009,42.0278654,639.702 -93.6519302,42.0278763,659.495 -93.6517981,42.0278131,682.145 -93.6515454,42.0277579,702.377 -93.6512548,42.0278326,720.291 -93.6510015,42.0277703,739.892 -93.6509179,42.0278501,760.344 -93.6505995,42.0278117,780.592 -93.6505183,42.0279356,797.799 -93.6501433,42.0279796,815.122 -93.6498773,42.0280966,833.108 -93.6494956,42.0280799,850.548 -93.6490884,42.0282553,869.606 -93.6485888,42.0282665,887.192 -93.6482133,42.0283925,908.449 -93.6478266,42.0286286,925.808 -93.6472431,42.0287949,943.184 -93.6467425,42.0288635,962.475 -93.6461411,42.0291171,981.888 -93.645794,42.0292541,999.333 -93.6452049,42.0293556,1019.04 -93.6447131,42.0295576,1038.186 -93.6442282,42.029732,1058.928 -93.6437306,42.029766,1078.57 -93.6433448,42.0298973,1098.438 -93.6428183,42.030067,1118.105 -93.6425198,42.0301114,1136.8 -93.6419547,42.0301556,1154.794 -93.6415718,42.0303405,1172.845 -93.6411244,42.0304028,1193.944 -93.6406968,42.0304395,1216.163 -93.640361,42.0305999,1238.684 -93.6399009,42.0306152,1260.109 -93.6396856,42.0307132,1280.043 -93.6392692,42.0307182,1301.966 -93.6387975,42.0308865,1321.218 -93.638604,42.0309711,1339.969 -93.638201,42.031004,1362.405 -93.6378494,42.031201,1381.973 -93.6376222,42.0311965,1401.061 -93.6372073,42.0313099,1423.78 -93.6369371,42.0312793,1444.161 -93.6365177,42.0313466,1464.916 -93.6362009,42.0314395,1486.545 -93.6359742,42.0314658,1508.832 -93.6355641,42.0315662,1530.662 -93.6352958,42.0315823,1552.833 -93.6349206,42.0316941,1575.09 -93.6346948,42.0316495,1594.499 -93.6344158,42.0318284,1614.338 -93.6340898,42.0319462,1639.98 -93.633826,42.0319402,1662.667 -93.6337021,42.0320897,1683.595 -93.6332787,42.0321943,1700.903 -93.6329384,42.0323262,1720.836 -93.6327067,42.0325251,1739.791 -93.6325397,42.0325194,1759.979 -93.6321986,42.0325432,1779.379 -93.6319291,42.0327026,1800.546 -93.6317741,42.0327174,1820.77 -93.631461,42.0327708,1842.744 -93.6311927,42.0329443,1864.916 -93.630946,42.0328948,1886.651 -93.6305689,42.0330621,1907.217 -93.630406,42.0330393,1928.572 -93.6300638,42.033175,1951.036 -93.6296282,42.0331581,1970.334 -93.6294511,42.033177,1989.457 -93.6290339,42.0332824,2010.63 -93.6287018,42.0333446,2032.792 -93.6284841,42.0334344,2053.752 -93.6280949,42.0335662,2076.715 -93.627936,42.0336294,2098.025 -93.627603,42.0338178,2119.023 -93.6274354,42.0339165,2142.165 -93.6270244,42.0339533,2162.993 -93.6269026,42.034094,2182.347 -93.6264925,42.0341626,2204.399 -93.6263963,42.0342088,2224.916 -93.6260411,42.0342521,2247.303 -93.6258087,42.0343704,2269.934 -93.6255711,42.0343155,2291.854 -93.6251241,42.0344409,2310.285 -93.6249011,42.0345673,2332.528 -93.6244864,42.0347129,2352.123 -93.6242116,42.0347442,2372.283 -93.6239847,42.0348388,2394.003 -93.6236382,42.034825,2412.975 -93.6232456,42.0350575,2434.061 -93.6230697,42.0351313,2451.966 -93.6227025,42.0353759,2473.802 -93.622456,42.0354602,2493.693 -93.622089,42.0356381,2515.181 -93.621659,42.0358269,2536.72 -93.621295,42.0360964,2557.852 -93.621082,42.0362862,2578.311 -93.6207128,42.0364099,2597.728 -93.6203789,42.0366847,2616.823 -93.6201621,42.0369006,2638.128 -93.6196992,42.0370421,2659.15 -93.6194207,42.0373781,2679.026 -93.6191592,42.0375355,2698.964 -93.6187769,42.037695,2719.692 -93.618392,42.0379784,2742.616 -93.6180387,42.0380558,2760.527 -93.6176493,42.0383804,2781.866 -93.6173332,42.0385424,2805.571 -93.6171611,42.0387508,2826.41 -93.6168658,42.0390995,2844.492 -93.616555,42.0393122,2867.778 -93.6164095,42.0394935,2889.204 -93.6159754,42.0398267,2907.872 -93.6157633,42.0399737,2928.676 -93.6155684,42.0402086,2949.994 -93.6154115,42.0405112,2971.661 -93.6149731,42.0407856,2992.012 -93.6148647,42.0410386,3010.94 -93.6146371,42.0411892,3030.735 -93.6143271,42.0413884,3052.264 -93.614244,42.0416046,3072.149 -93.6139046,42.041944,3089.828 -93.6137515,42.042159,3112.102 -93.6134822,42.0423489,3135.389 -93.6132294,42.0426719,3155.116 -93.6131043,42.0428672,3177.309 -93.6128149,42.0431829,3198.775 -93.6124367,42.0433908,3217.321 -93.6123395,42.0436243,3238.312 -93.6120244,42.043948,3256.043 -93.6118236,42.044167,3278.489 -93.6117636,42.0443674,3298.379 -93.6114378,42.0444892,3317.939 -93.6112006,42.0448083,3337.295 -93.6109617,42.0449084,3357.564 -93.6107073,42.0451832,3378.676 -93.6104831,42.045325,3400.699 -93.6103042,42.0455896,3423.284 -93.610048,42.0458007,3444.552 -93.6099546,42.0460073,3464.84 -93.609764,42.0463178,3484.438 -93.6095522,42.0464701,3507.147 -93.609479,42.0467318,3528.875 -93.60908,42.046999,3549.14 -93.6089877,42.047207,3571.343 -93.6085795,42.0474227,3593.616 -93.6083915,42.0476224,3618.557 -93.6079589,42.0477753,3638.727 -93.6078274,42.048001,3660.461 -93.6075282,42.0481308,3682.873 -93.6072751,42.0484443,3703.511 -93.6071353,42.0486113,3724.968 -93.6068442,42.0489262,3745.172 -93.6067226,42.0491508,3765.029 -93.6064687,42.0492406,3784.602 -93.6061606,42.0495041,3807.58 -93.6060796,42.0497336,3826.329 -93.6058027,42.0498743,3848.012 -93.6054946,42.050165,3870.378 -93.6053305,42.0502641,3893.732 -93.6049789,42.050575,3915.196 -93.6048577,42.0506776,3936.13 -93.6045188,42.0509134,3958.584 -93.6042752,42.0510265,3980.269 -93.6041638,42.0512645,4000.393 -93.6037904,42.0514396,4021.574 -93.6035794,42.0515212,4041.468 -93.6033577,42.0516888,4064.594 -93.6031844,42.0519195,4087.614 -93.6029478,42.051957,4107.021 -93.6025968,42.0521814,4131.455 -93.6025152,42.0523086,4152.464 -93.6021365,42.0525431,4176.665 -93.6018618,42.0526668,4203.412 -93.601625,42.0529968,4225.846 -93.6012235,42.0531012,4246.324 -93.6010948,42.0533409,4266.387 -93.6008813,42.0534718,4288.979 -93.6004149,42.0536871,4307.687 -93.6002083,42.0539048,4328.842 -93.5999613,42.0542078,4350.643 -93.5995985,42.0542851,4371.889 -93.599349,42.0545565,4393.951 -93.5991843,42.0546704,4413.169 -93.5988398,42.0548204,4436.642 -93.5987553,42.0550483,4457.055 -93.5983217,42.0553143,4475.405 -93.5980701,42.0555378,4500.49 -93.5979126,42.0555999,4522.986 -93.5976195,42.0559142,4544.745 -93.597284,42.0560595,4566.123 -93.5970546,42.0561977,4587.954 -93.5969691,42.0563803,4605.809 -93.5967287,42.0566684,4626.544 -93.5962913,42.056818,4647.285 -93.5961387,42.0569763,4667.721 -93.5957832,42.0572159,4689.351 -93.595526,42.057378,4711.911 -93.5952834,42.0575441,4734.673 -93.5948788,42.0576517,4756.338 -93.5945751,42.057758,4779.632 -93.5942585,42.0580053,4800.429 -93.5939446,42.0581451,4823.006 -93.593537,42.0583906,4845.629 -93.5932221,42.058449,4869.308 -93.5928387,42.0586998,4891.344 -93.592483,42.0588796,4915.309 -93.5920394,42.059146,4938.639 -93.5918738,42.0592977,4959.121 -93.591371,42.0595028,4980.011 -93.5911148,42.0596545,5001.964 -93.5907242,42.0597198,5023.381 -93.5902677,42.059907,5041.627 -93.5899389,42.0600457,5064.93 -93.5895936,42.0600518,5089.977 -93.5891226,42.0601996,5110.665 -93.5887441,42.0601841,5131.893 -93.588474,42.0602875,5155.047 -93.587983,42.0602414,5177.666 -93.5876895,42.0603942,5200.413 -93.5871758,42.0602922,5220.177 -93.5868951,42.0603609,5243.502 -93.5863357,42.060343,5262.967 -93.5860172,42.0604442,5286.404 -93.5856546,42.0604524,5311.496 -93.5851169,42.0604733,5334.308 -93.5849024,42.0603926,5355.866 -93.5843997,42.0603713,5377.473 -93.5841233,42.060476,5396.503 -93.5838161,42.0604109,5419.259 -93.5834266,42.0603123,5443.124 -93.5830723,42.0602707,5466.096 -93.5826673,42.0600992,5483.343 -93.5824576,42.0600649,5506.618 -93.5820967,42.0601095,5527.018 -93.5816541,42.0600458,5548.567 -93.5814242,42.0599145,5570.094 -93.5811194,42.0599703,5593.143 -93.5806683,42.0598374,5610.935 -93.5804334,42.0597355,5632.859 -93.5802907,42.059698,5653.237 -93.5800374,42.0596457,5679.605 -93.5795404,42.0595547,5698.705 -93.5792927,42.0595399,5719.588 -93.5791047,42.0594444,5739.196 -93.578768,42.0593564,5762.341 -93.5784743,42.059351,5782.92 -93.5782739,42.0591914,5805.37 -93.5779208,42.0590476,5828.094 -93.5778011,42.0588877,5849.773 -93.5774037,42.0587596,5872.382 -93.5772505,42.0587325,5893.771 -93.5770436,42.0587389,5913.296 -93.5766852,42.0586425,5936.955 -93.5763174,42.058439,5958.749 -93.5758613,42.0584181,5979.599 -93.5756433,42.0583703,5999.542 -93.5752374,42.0582286,6020.185 -93.5747488,42.0581677,6042.172 -93.5745115,42.0581343,6065.241 -93.5740398,42.05792,6084.917 -93.5735247,42.0579431,6104.64 -93.5731036,42.0579088,6128.378 -93.5727922,42.0577727,6150.514 -93.5721465,42.0577672,6171.332 -93.5717832,42.0578031,6190.751 -93.5712785,42.0578811,6212.034 -93.5705744,42.0578772,6232.476 -93.570089,42.0579852,6255.123 -93.5695614,42.0578562,6275.488 -93.568938,42.0578687,6296.363 -93.5683384,42.0578112,6318.103 -93.567905,42.0576825,6336.958 -93.5675392,42.0576934,6358.729 -93.566892,42.0577595,6380.102 -93.5663994,42.0576302,6401.265 -93.5659111,42.0577515,6421.209 -93.565535,42.0577392,6443.222 -93.5649359,42.0576449,6463.135 -93.5644722,42.0577067,6483.554 -93.5641103,42.0576703,6503.443 -93.5635086,42.0576609,6525.682 -93.5629375,42.0577113,6547.079 -93.5625192,42.0576671,6567.235 -93.5620862,42.0577454,6588.621 -93.5614165,42.057618,6611.504 -93.5607153,42.0576693,6631.746 -93.5601528,42.0576712,6653.678 -93.5595774,42.0575332,6674.658 -93.5589541,42.0575313,6696.353 -93.5582723,42.0575606,6719.547 -93.5575315,42.0573986,6739.583 -93.5568936,42.0574411,6761.741 -93.5560768,42.0574273,6782.6 -93.5554519,42.0573215,6804.569 -93.5548812,42.057253,6830.188 -93.5540247,42.0572289,6849.899 -93.5534394,42.0572867,6870.163 -93.5528773,42.0572453,6894.437 -93.5522488,42.0571491,6918.824 -93.551532,42.0569649,6939.064 -93.5510465,42.0569438,6959.301 -93.550344,42.0567932,6982.017 -93.549677,42.0568449,7003.621 -93.5491271,42.0568743,7024.612 -93.5485839,42.0567663,7046.081 -93.5478771,42.0568732,7065.54 -93.5474096,42.0568383,7086.365 -93.5474096,42.0568383,7086.365 -93.5459395,42.0566767,7129.287 -93.5453301,42.0567625,7150.713 -93.5447877,42.0566108,7172.69 -93.5440738,42.0565423,7195.452 -93.5433529,42.0565469,7217.833 -93.5428194,42.0564525,7240.893 -93.5423926,42.056381,7261.68 -93.541669,42.0563396,7283.481 -93.5409488,42.0561605,7302.0 -93.540442,42.0560566,7326.845 -93.5398028,42.0561492,7348.448 -93.5392115,42.0559878,7369.233 -93.5385771,42.0558708,7393.867 -93.5379773,42.0559019,7416.066 -93.5373958,42.0558708,7439.201 -93.5373958,42.0558708,7439.201 -93.5360417,42.0557819,7484.231 -93.5355916,42.0556332,7507.207 -93.534853,42.0555017,7532.596 -93.5344064,42.0554436,7552.253 -93.533907,42.0552817,7575.393 -93.5331735,42.0552009,7596.822 -93.5324503,42.055047,7619.274 -93.5319455,42.0550225,7641.757 -93.5314769,42.0548302,7663.157 -93.5309584,42.0546238,7683.102 -93.5303398,42.0544885,7706.446 -93.5297502,42.0545027,7727.301 -93.5291862,42.0542759,7751.256 -93.5284627,42.0540443,7771.528 -93.527897,42.0540166,7794.87 -93.5273797,42.0539044,7821.305 -93.5266052,42.0537682,7841.355 -93.526083,42.0535559,7862.65 -93.5255941,42.0534257,7884.015 -93.5249812,42.0534451,7904.036 -93.524218,42.0533797,7924.844 -93.523721,42.0531931,7945.327 -93.5231162,42.0530883,7969.146 -93.5223895,42.0529805,7992.248 -93.5219142,42.0527563,8011.909 -93.5212883,42.052707,8035.164 -93.5204838,42.0525968,8055.996 -93.5196877,42.0525385,8073.283 -93.5190794,42.0524462,8097.305 -93.5186334,42.0522135,8121.527 -93.5178071,42.0520946,8142.872 -93.5172218,42.0520699,8160.68 -93.5167406,42.0519148,8182.065 -93.5159737,42.0517507,8205.428 -93.5153319,42.0517266,8226.756 -93.5147768,42.0515478,8249.589 -93.5140325,42.05144,8273.526 -93.5135361,42.0514193,8293.593 -93.5129407,42.051193,8316.288 -93.5124014,42.0511633,8339.136 -93.5117405,42.0511895,8358.369 -93.5109576,42.0510273,8379.803 -93.5104648,42.0508416,8400.875 -93.5099224,42.0508247,8422.49 -93.5093091,42.0508746,8440.497 -93.5085774,42.0507573,8464.31 -93.5080987,42.050566,8484.716 -93.5074449,42.0505462,8508.272 -93.5066511,42.0504732,8530.604 -93.5060841,42.050273,8552.109 -93.5055354,42.0502481,8574.484 -93.5047221,42.0501692,8596.79 -93.5042113,42.0500536,8621.215 -93.5034247,42.0500124,8644.013 -93.5026695,42.0498932,8666.385 -93.5021507,42.0497277,8689.646 -93.5016177,42.0497299,8710.842 -93.5008208,42.0496861,8733.647 -93.5001477,42.0494737,8756.135 -93.4996416,42.0493745,8777.796 -93.4988959,42.0493604,8802.05 -93.4981111,42.0492033,8823.414 -93.4975373,42.0490604,8845.74 -93.4968968,42.0490612,8869.254 -93.4960586,42.0489298,8888.887 -93.4954319,42.0487524,8912.678 -93.4949076,42.0487584,8933.447 -93.4941383,42.0487197,8957.293 -93.4935518,42.0484841,8979.46 -93.4929718,42.0484841,9000.923 -93.4922247,42.0483806,9022.816 -93.4915771,42.0481631,9046.395 -93.4910363,42.0480974,9071.845 -93.4901867,42.0479072,9092.486 -93.4895811,42.0476487,9113.782 -93.4890998,42.0474916,9137.438 -93.4883354,42.0474269,9156.872 -93.487659,42.0472247,9181.021 -93.487247,42.0471319,9201.694 -93.4866333,42.0470982,9223.992 -93.4860498,42.0469711,9247.671 -93.4856464,42.0468165,9270.299 -93.485,42.0466709,9298.479 -93.4843679,42.0467491,9317.768 -93.4839209,42.0466136,9338.684 -93.4832341,42.0465334,9362.578 -93.482722,42.0465665,9384.813 -93.4821876,42.0464036,9407.633 -93.4816012,42.046281,9433.085 -93.4810439,42.0463352,9453.339 -93.4806117,42.0462852,9477.57 -93.4800244,42.046071,9498.11 -93.4794004,42.0460801,9519.818 -93.4788853,42.0461372,9539.224 -93.4782855,42.0460422,9562.646 -93.4777583,42.0458698,9585.475 -93.4773484,42.0459013,9605.019 -93.4767121,42.0458622,9628.23 -93.4761815,42.0456647,9652.594 -93.4758383,42.0455768,9674.557 -93.4751779,42.0455734,9696.725 -93.4746475,42.0454465,9720.423 -93.4742653,42.0452943,9742.82 -93.4735991,42.0452868,9763.794 -93.4731523,42.0453078,9784.163 -93.4727094,42.0452419,9808.592 -93.4720255,42.0452172,9830.08 -93.4716128,42.0450447,9850.636 -93.4712162,42.0450904,9872.608 -93.4705802,42.0451274,9895.062 -93.4700657,42.0450082,9915.58 -93.4697429,42.045017,9936.796 -93.469274,42.0451693,9959.13 -93.4686606,42.0451231,9979.929 -93.4682687,42.0450982,10002.272 -93.467877,42.0452388,10025.382 -93.4672215,42.0452881,10047.282 -93.4667567,42.0452524,10070.121 -93.4664328,42.0453321,10092.698 -93.4658273,42.0453298,10115.16 -93.4652878,42.0453612,10141.145 -93.4649575,42.0455289,10160.314 -93.46439,42.0456763,10181.217 -93.4639328,42.0458654,10203.344 -93.4635865,42.045986,10225.797 -93.4628954,42.0460258,10248.051 -93.4622447,42.0461641,10269.951 -93.4615241,42.0461707,10289.716 -93.4609862,42.0460982,10307.743 -93.4606572,42.046115,10330.253 -93.4601521,42.046301,10352.316 -93.4595135,42.0462901,10375.567 -93.4591008,42.0462168,10397.439 -93.458616,42.0463725,10422.14 -93.4581882,42.0463113,10444.007 -93.4578516,42.0463566,10467.271 -93.4572713,42.0464881,10491.692 -93.4566274,42.0465019,10513.9 -93.4562796,42.0466194,10536.371 -93.4557175,42.046826,10557.859 -93.4550266,42.0468995,10579.412 -93.4545452,42.0469406,10603.84 -93.4541844,42.047073,10626.338 -93.4535193,42.0472906,10646.162 -93.4529152,42.0474074,10672.321 -93.4525178,42.0473749,10693.073 -93.4520909,42.0475316,10718.817 -93.451325,42.0476899,10737.874 -93.4506703,42.0477904,10760.396 -93.4500801,42.0478809,10789.283 -93.4497869,42.0479488,10808.002 -93.4493757,42.0480976,10832.42 -93.448681,42.0482917,10856.094 -93.4482614,42.0484506,10880.37 -93.4478582,42.0486556,10904.242 -93.4476097,42.0488268,10921.41 -93.4472127,42.0490132,10944.956 -93.4465604,42.0492523,10966.869 -93.4460563,42.0492933,10990.629 -93.4456561,42.0494104,11017.452 -93.4451643,42.0496782,11038.392 -93.4446464,42.0496852,11061.148 -93.4441566,42.0496467,11082.822 -93.4434541,42.0497425,11106.337 -93.4430025,42.0499467,11129.551 -93.442618,42.0499719,11151.887 -93.4421364,42.049978,11177.199 -93.4415073,42.0501466,11203.045 -93.4409838,42.0503653,11226.731 -93.4405162,42.0504155,11251.876 -93.439758,42.0505541,11273.311 -93.4390964,42.0508003,11294.661 -93.4386846,42.0510339,11317.454 -93.4381671,42.0510663,11339.077 -93.4375761,42.0511447,11363.456 -93.4370867,42.0514156,11388.413 -93.4366032,42.0517322,11406.513 -93.436008,42.051966,11430.816 -93.4355672,42.0520783,11454.631 -93.4352363,42.0523028,11474.805 -93.4345904,42.0525703,11496.408 -93.4340089,42.0526281,11519.896 -93.4335669,42.0527423,11548.319 -93.4328685,42.0530015,11570.232 -93.432326,42.0530813,11595.75 -93.4319713,42.0532497,11615.173 -93.4314475,42.0535134,11640.732 -93.4306881,42.0536219,11662.681 -93.4301761,42.0536981,11686.017 -93.42968,42.0539775,11710.229 -93.4290246,42.0542115,11734.475 -93.4285089,42.054272,11760.846 -93.4278737,42.0545854,11786.302 -93.4272486,42.054689,11812.186 -93.4267911,42.0547603,11837.357 -93.4261881,42.0550541,11861.222 -93.4254818,42.0552434,11885.824 -93.4247911,42.0553048,11906.675 -93.4243036,42.0553865,11932.571 -93.423915,42.0555946,11959.112 -93.423184,42.0557054,11983.034 -93.4225502,42.0557607,12007.343 -93.422147,42.0558342,12032.56 -93.421706,42.0560785,12055.842 -93.421291,42.0563139,12083.463 -93.420863,42.0563344,12109.268 -93.4201718,42.0563361,12129.641 -93.4194963,42.0565364,12150.303 -93.418963,42.0567902,12176.028 -93.4185287,42.0568344,12199.927 -93.4178439,42.0570275,12227.75 -93.4174407,42.0571853,12253.153 -93.4169857,42.0573391,12280.777 -93.4163338,42.0575169,12309.428 -93.4157308,42.0576555,12338.314 -93.4154055,42.057772,12360.179 -93.4149307,42.0578902,12390.279 -93.414173,42.0580005,12411.572 -93.4136067,42.0581231,12442.71 -93.4132456,42.0581983,12466.216 -93.4125843,42.05842,12493.911 -93.4118411,42.0584902,12516.268 -93.4113297,42.0585626,12541.441 -93.4108956,42.058862,12565.866 -93.4102613,42.0591622,12591.652 -93.4094896,42.05932,12613.493 -93.4089162,42.0594367,12643.804 -93.4083508,42.059785,12667.958 -93.4076097,42.0600223,12691.65 -93.4070745,42.0601287,12723.14 -93.4063909,42.0604895,12748.934 -93.4057915,42.0608117,12775.392 -93.4051684,42.0611766,12800.554 -93.4044393,42.0612926,12827.757 -93.4039377,42.0614169,12854.043 -93.4034328,42.0617022,12886.069 -93.4026204,42.0618729,12915.132 -93.402025,42.0619501,12938.462 -93.4014046,42.0622725,12967.628 -93.4005391,42.06263,12993.757 -93.3996178,42.062875,13015.999 -93.3988668,42.0629884,13045.34 -93.3982273,42.0633159,13070.786 -93.3973274,42.0636024,13096.887 -93.3965202,42.063694,13126.55 -93.3959273,42.0639042,13152.583 -93.3952827,42.064024,13177.278 -93.3944767,42.06404,13201.147 -93.3935781,42.064076,13231.623 -93.3924942,42.0642573,13255.37 -93.3917159,42.0644712,13279.319 -93.391029,42.0645827,13304.236 -93.3903056,42.0645776,13330.743 -93.3893278,42.0645541,13355.331 -93.3883593,42.0647702,13382.035 -93.3876764,42.0650102,13406.095 -93.3869674,42.0651205,13427.042 -93.3861184,42.0651905,13451.354 -93.3850932,42.0654328,13478.287 -93.3841082,42.0657005,13497.452 -93.3832255,42.0659747,13524.65 -93.382628,42.066131,13546.85 -93.3818831,42.0661752,13575.977 -93.3809879,42.0664227,13600.433 -93.38028,42.0666031,13629.222 -93.3796217,42.0666391,13658.559 -93.3786849,42.0667887,13684.719 -93.3779395,42.0669405,13716.235 -93.3779395,42.0669405,13716.235 -93.3768269,42.0670132,13764.195 -93.3759365,42.0671122,13790.72 -93.3751952,42.0669756,13816.011 -93.3746417,42.066946,13844.317 -93.3739216,42.0670766,13868.162 -93.3730737,42.0670421,13894.591 -93.3724079,42.0668134,13919.331 -93.371805,42.066664,13953.099 -93.3710361,42.0666925,13977.727 -93.3701397,42.0665639,14000.301 -93.3694462,42.0663202,14029.03 -93.3689982,42.0662649,14057.388 -93.3684917,42.0662671,14079.862 -93.367956,42.0661765,14109.189 -93.3673215,42.0659267,14131.468 -93.3667493,42.0658744,14163.301 -93.3660525,42.0659786,14192.972 -93.3651128,42.0658461,14220.023 -93.3643057,42.0657699,14252.835 -93.3638235,42.065746,14275.692 -93.3631806,42.0657789,14307.488 -93.3622912,42.0657069,14336.667 -93.361795,42.0656591,14366.563 -93.3612623,42.0656769,14386.235 -93.3607241,42.0656724,14416.305 -93.3600279,42.0655259,14448.671 -93.3591774,42.0654187,14467.214 -93.3585506,42.0654809,14493.149 -93.3582182,42.0655362,14520.456 -93.3576989,42.0654138,14547.743 -93.357172,42.0652916,14570.904 -93.3567487,42.0652309,14605.204 -93.3564236,42.0653322,14627.421 -93.355819,42.0653825,14650.61 -93.3551068,42.0652592,14679.651 -93.3546157,42.065056,14708.937 -93.3542009,42.0650734,14735.212 -93.3535001,42.0651386,14762.556 -93.3527968,42.065223,14796.377 -93.3521616,42.0654425,14819.892 -93.3515263,42.0656475,14841.317 -93.3509265,42.065791,14874.973 -93.350529,42.0660525,14903.737 -93.3500401,42.0660378,14934.593 -93.3492971,42.0660411,14961.57 -93.3486008,42.0662142,14989.465 -93.3480874,42.0663895,15017.251 -93.3476756,42.0664263,15042.615 -93.3471536,42.0663572,15067.148 -93.3464462,42.0662933,15096.875 -93.3458972,42.066352,15128.853 -93.3453177,42.0665016,15152.569 -93.344525,42.066582,15185.405 -93.3437034,42.0663763,15208.893 -93.343102,42.066202,15233.222 -93.3425106,42.0661503,15268.328 -93.3417821,42.0662778,15292.08 -93.3411813,42.0662343,15327.947 -93.3408665,42.0660853,15350.183 -93.340326,42.0659383,15383.127 -93.3398397,42.0660239,15415.181 -93.3396083,42.0660253,15440.316 -93.3392206,42.0659164,15473.582 -93.3385267,42.0659912,15497.299 -93.338095,42.0661337,15520.616 -93.3375567,42.0662537,15555.251 -93.3369829,42.0661091,15585.776 -93.3367722,42.0659199,15609.938 -93.3365238,42.0659382,15638.048 -93.3361251,42.0658832,15670.141 -93.3358698,42.0656842,15700.894 -93.3358283,42.0656701,15729.569 -93.3356162,42.0657693,15758.407 -93.3351922,42.065788,15782.007 -93.3348505,42.0656434,15805.277 -93.3345657,42.0655027,15836.161 -93.3344113,42.0654665,15874.32 -93.3341633,42.0656648,15903.893 -93.3336717,42.0657028,15929.546 -93.3331843,42.0657318,15961.871 -93.333064,42.0657122,15987.773 -93.3327036,42.0658177,16023.375 -93.3320335,42.0657319,16048.306 -93.3315393,42.0655818,16076.337 -93.3313853,42.0654181,16102.414 -93.3312428,42.0653482,16128.235 -93.3308887,42.0653219,16161.274 -93.3303008,42.0652869,16191.763 -93.3300864,42.0652655,16220.779 -93.3298225,42.0653378,16250.62 -93.3295377,42.0654044,16287.282 -93.3294173,42.0653822,16318.047 -93.3292397,42.0651932,16348.998 -93.3288686,42.0651847,16386.424 -93.3281792,42.0652366,16409.052 -93.3276008,42.0651016,16439.165 -93.3269532,42.0650319,16473.821 -93.3263076,42.065176,16497.284 -93.3259028,42.0652762,16529.83 -93.3257055,42.0652775,16558.411 -93.3253795,42.0651626,16587.445 -93.3249355,42.065112,16618.41 -93.3244438,42.0651074,16651.416 -93.3241904,42.065326,16681.072 -93.3241004,42.0653862,16713.017 -93.3239655,42.0654754,16753.072 -93.3235441,42.0654823,16790.717 -93.3229255,42.0656971,16811.79 -93.3225135,42.0658856,16847.784 -93.3222831,42.0661269,16879.557 -93.3220593,42.066212,16911.543 -93.3215543,42.0662738,16942.152 -93.3213412,42.0662952,16974.21 -93.3212599,42.0665213,17007.38 -93.3208777,42.0665613,17040.615 -93.3206007,42.0665483,17069.315 -93.3203723,42.066574,17102.56 -93.3199852,42.0665509,17134.309 -93.319373,42.0666573,17157.765 -93.3188011,42.0668386,17185.552 -93.3184383,42.0671444,17214.547 -93.3182168,42.0673496,17247.574 -93.317774,42.0673357,17283.29 -93.3172824,42.0673976,17320.7 -93.3170848,42.0675913,17350.143 -93.3168772,42.0677373,17374.681 -93.3166683,42.0679436,17399.154 -93.3165566,42.0680031,17428.231 -93.3162773,42.0679057,17461.11 -93.3157787,42.068034,17497.907 -93.3155795,42.0682114,17533.876 -93.3155003,42.0681457,17565.374 -93.3154326,42.0680856,17599.18 -93.3150997,42.0679859,17634.644 -93.3147436,42.067887,17656.901 -93.314556,42.0677538,17679.253 -93.3145127,42.0676744,17708.415 -93.3142908,42.0677437,17748.2 -93.3143431,42.0680205,17777.968 -93.3144595,42.0681474,17816.836 -93.3145238,42.0680483,17848.2 -93.3143573,42.0680614,17881.974 -93.314181,42.0683091,17913.237 -93.3141869,42.0685591,17943.82 -93.3141934,42.0687635,17967.685 -93.3142466,42.068861,17994.038 -93.3140866,42.0687526,18019.703 -93.3137014,42.0686778,18047.048 -93.313191,42.0687399,18075.99 -93.3127967,42.0689492,18102.945 -93.3124996,42.0691837,18133.971 -93.312157,42.0691811,18174.039 -93.3118482,42.0690418,18200.923 -93.3115543,42.0690073,18243.137 -93.311054,42.0692137,18276.061 -93.3105261,42.0694251,18307.213 -93.3103751,42.0694814,18343.547 -93.3102424,42.069471,18373.943 -93.3099457,42.0695439,18415.483 -93.3093089,42.0696189,18448.37 -93.3087565,42.0695426,18481.886 -93.308521,42.0693206,18515.554 -93.3084103,42.069309,18552.303 -93.3082535,42.0694689,18580.871 -93.3081322,42.0696028,18612.71 -93.3076844,42.0696639,18647.352 -93.3073015,42.0695655,18674.512 -93.307004,42.0696104,18715.671 -93.3069174,42.0698354,18745.106 -93.3066668,42.0699687,18785.252 -93.3061991,42.0699119,18825.366 -93.3059318,42.0696893,18845.281 -93.3056919,42.0695451,18875.949 -93.3054232,42.0696536,18913.005 -93.3054084,42.0696951,18952.357 -93.3055618,42.0696427,18992.232 -93.3056374,42.0696169,19037.959 -93.3056187,42.0695254,19078.172 -93.3055424,42.0693176,19104.352 -93.3055524,42.0694574,19139.217 -93.3052983,42.0695304,19173.187 -93.3051835,42.06947,19210.063 -93.3053624,42.0693396,19242.408 -93.3056232,42.0693759,19270.055 -93.3059439,42.0693618,19298.986 -93.3062807,42.069364,19325.808 -93.3065238,42.0693992,19367.652 -93.3067067,42.0694956,19418.923 -93.3066767,42.0698215,19461.058 -93.3068603,42.0701653,19501.678 -93.3072487,42.07026,19524.715 -93.3072182,42.0703316,19562.325 -93.3069198,42.0704169,19590.27 -93.3066493,42.0705061,19615.849 -93.306571,42.0705964,19655.866 -93.306758,42.0706723,19681.877 -93.3067253,42.0706048,19711.172 -93.3065314,42.0704792,19745.066 -93.3060705,42.070419,19775.526 -93.3058004,42.0704336,19814.998 -93.3058125,42.0704524,19850.521 -93.3058091,42.070466,19886.57 -93.305832,42.0701757,19914.233 -93.3056978,42.0699378,19943.725 -93.305535,42.0696805,19977.564 -93.3052213,42.0694327,20004.514 -93.3048817,42.0693032,20024.576 -93.304576,42.0693312,20049.797 -93.3043356,42.069396,20075.128 -93.3041586,42.0694896,20097.587 -93.3040053,42.0695129,20123.545 -93.3041553,42.0693804,20158.845 -93.3042637,42.0691423,20199.236 -93.3043752,42.0687918,20227.324 -93.3044531,42.0686277,20265.388 -93.3046709,42.0686612,20305.021 -93.3049007,42.0688101,20338.417 -93.3050696,42.0690296,20365.875 -93.3050506,42.0691589,20393.239 -93.3050446,42.0690512,20431.91 -93.3051639,42.0691748,20474.106 -93.3053521,42.0694092,20503.645 -93.3055479,42.0696107,20534.167 -93.3055884,42.0698806,20568.769 -93.3053757,42.0699852,20601.832 -93.3052943,42.0701974,20646.146 -93.305052,42.0704639,20675.903 -93.3048047,42.0706049,20705.916 -93.3045297,42.0707725,20744.663 -93.3044912,42.0710901,20778.55 -93.3045383,42.0713946,20807.976 -93.304765,42.071637,20833.299 -93.3050064,42.0717135,20856.565 -93.3050142,42.0718569,20885.551 -93.3047986,42.0718547,20914.19 -93.3045778,42.0719124,20946.278 -93.3047324,42.0720346,20983.762 -93.304619,42.0721028,21030.728 -93.304539,42.0719446,21069.309 -93.3043238,42.0717877,21093.96 -93.3044161,42.071771,21128.379 -93.3045603,42.0717202,21160.688 -93.3046626,42.0717612,21195.909 -93.304769,42.0719132,21229.471 -93.3047371,42.0721113,21258.344 -93.3049909,42.072129,21293.803 -93.3052442,42.0720634,21323.881 -93.3055836,42.0720934,21357.387 -93.3058456,42.0720252,21396.164 -93.3057298,42.0719383,21430.172 -93.3055115,42.0719362,21461.857 -93.3052325,42.0719559,21485.9 -93.3050651,42.0720866,21518.845 -93.3051027,42.0723326,21553.843 -93.305187,42.0726088,21589.054 -93.3053278,42.0727493,21623.771 -93.3051324,42.0728311,21668.038 -93.3048711,42.0726529,21701.875 -93.3046387,42.0725426,21730.004 -93.3044378,42.0725278,21768.399 -93.3041881,42.072619,21799.638 -93.3040283,42.0726929,21826.066 -93.3039435,42.0726616,21865.715 -93.3042731,42.0726276,21907.837 -93.3045072,42.0728806,21945.582 -93.3048555,42.0730318,21978.902 -93.3051437,42.0733476,22011.767 -93.3051691,42.0736833,22041.906 -93.3051878,42.0740197,22070.421 -93.3051699,42.0743399,22100.238 -93.3050109,42.0746323,22121.73 -93.3049707,42.0747583,22158.261 -93.3052204,42.0748894,22192.59 -93.3051486,42.0749329,22236.124 -93.3054062,42.0751824,22275.862 -93.3057853,42.07536,22311.806 -93.3061706,42.0756469,22351.313 -93.3063905,42.0758508,22395.218 -93.306445,42.0761646,22446.738 -93.3061914,42.0761844,22479.147 -93.3061295,42.076175,22509.614 -93.3061722,42.0761048,22540.536 -93.3063812,42.0761119,22570.42 -93.3063744,42.0762724,22610.315 -93.3066345,42.0765036,22651.896 -93.3063995,42.0767744,22690.03 -93.3063081,42.0767599,22728.487 -93.3064149,42.076869,22778.179 -93.3062791,42.0769011,22828.133 -93.3058604,42.0769182,22859.446 -93.3059036,42.0768056,22899.994 -93.3060064,42.0766976,22939.077 -93.3062949,42.0766666,22977.744 -93.306296,42.076898,23012.408 -93.3063276,42.0769722,23053.054 -93.3064777,42.0768743,23095.845 -93.3065526,42.0767644,23139.948 -93.3066021,42.0765782,23182.255 -93.3068597,42.0767289,23228.553 -93.3073117,42.0768938,23269.155 -93.3075684,42.0771906,23292.59 -93.3080095,42.0774158,23318.408 -93.3083467,42.0774235,23348.743 -93.3085298,42.0774942,23382.358 -93.3086956,42.0774861,23423.167 -93.3087013,42.0776984,23459.809 -93.3089384,42.0779389,23484.571 -93.3092312,42.078009,23520.15 -93.309496,42.0779335,23550.668 -93.3095727,42.07801,23583.392 -93.3097163,42.0781585,23620.537 -93.3096792,42.0782042,23651.579 -93.309942,42.0782966,23692.966 -93.3099542,42.0783218,23731.217 -93.3099773,42.0784136,23771.927 -93.3100606,42.078535,23821.883 -93.3105027,42.0784361,23864.327 -93.3108354,42.0784797,23914.961 -93.3110582,42.0782978,23942.64 -93.3113396,42.0784538,23973.134 -93.3113766,42.0784336,24015.498 -93.3116928,42.0784946,24064.8 -93.312075,42.0784789,24111.479 -93.3124715,42.0784413,24166.591 -93.3125637,42.0787023,24207.337 -93.312761,42.0788457,24242.341 -93.3130535,42.0789793,24281.231 -93.3132668,42.0790076,24324.875 -93.3134752,42.0791755,24372.155 -93.3134628,42.0791098,24405.15 -93.3135921,42.0793423,24438.227 -93.3135841,42.0792719,24469.303 -93.3135724,42.0792674,24515.369 -93.3135828,42.079486,24556.84 -93.313598,42.0794534,24608.374 -93.3134069,42.0794862,24655.679 -93.3131964,42.0792901,24694.623 -93.3133187,42.079195,24719.581 -93.3133707,42.0791791,24755.393 -93.3131745,42.0793108,24784.97 -93.3129912,42.0792746,24814.979 -93.313022,42.079268,24846.155 -93.3130604,42.0790687,24873.955 -93.3130221,42.0791181,24913.626 -93.3129111,42.0789931,24954.356 -93.313151,42.0790029,24989.535 -93.3131525,42.0787824,25027.903 -93.3132836,42.0789264,25066.978 -93.3135898,42.0789428,25108.695 -93.3140421,42.078959,25151.486 -93.314243,42.0790219,25197.128 -93.3144318,42.0788791,25233.996 -93.3145142,42.0789486,25276.936 -93.3146025,42.0791887,25316.622 -93.3145739,42.0792415,25359.119 -93.3148231,42.0793741,25412.073 -93.3151581,42.0792489,25446.479 -93.3154414,42.0792494,25485.612 -93.3154802,42.0791064,25524.337 -93.3155711,42.0789781,25566.2 -93.3158015,42.0787656,25550.139 -93.3159659,42.0786283,25472.659 -93.3161215,42.0785751,25374.175 -93.3163349,42.0786927,25268.522 -93.3165291,42.0787394,25158.918 -93.3167465,42.0787716,25053.488 -93.3169139,42.0787895,24949.437 -93.3169762,42.0787896,24845.893 -93.3169399,42.0787892,24741.362 -93.3168981,42.0787949,24639.969 -93.3168895,42.078706,24540.566 -93.3169215,42.0786821,24440.854 -93.3169863,42.0787674,24340.68 -93.3170851,42.07886,24242.249 -93.3172529,42.0789008,24143.596 -93.3173984,42.0789044,24040.593 -93.3175913,42.0789127,23934.675 -93.3178506,42.0789454,23834.081 -93.3180108,42.0789519,23738.892 -93.3182159,42.0789603,23643.567 -93.3184353,42.0789613,23545.041 -93.3186783,42.0789971,23448.533 -93.3189125,42.079091,23353.874 -93.3191193,42.0792352,23261.041 -93.3192547,42.0793166,23170.462 -93.3193937,42.0793782,23080.348 -93.3194422,42.079437,22989.298 -93.3193043,42.0794378,22897.683 -93.3192123,42.0794248,22809.047 -93.3192085,42.0794931,22721.499 -93.319156,42.079561,22638.93 -93.3191667,42.0796604,22554.751 -93.3192103,42.0798155,22468.493 -93.3192721,42.0799866,22380.609 -93.3194588,42.080136,22292.637 -93.3196282,42.0802249,22206.227 -93.3196916,42.0803759,22120.72 -93.3197616,42.0805721,22036.118 -93.3198226,42.0807648,21952.789 -93.319856,42.0808969,21870.274 -93.3198514,42.0809519,21786.311 -93.3199008,42.0809809,21703.696 -93.3199019,42.08101,21623.667 -93.319887,42.0811,21543.363 -93.3198705,42.0811982,21461.652 -93.319948,42.0813167,21381.448 -93.3200227,42.0813519,21305.926 -93.3200806,42.0813811,21231.674 -93.3200754,42.0814306,21152.788 -93.3199742,42.0814776,21074.192 -93.3199672,42.0815781,20996.208 -93.320038,42.0816291,20921.975 -93.3200581,42.0817011,20847.189 -93.3200036,42.0817538,20770.29 -93.3199829,42.0818128,20693.741 -93.3200081,42.0819216,20617.605 -93.3201077,42.0820439,20543.494 -93.3202583,42.0821301,20473.069 -93.3203552,42.0821262,20405.476 -93.3204292,42.0821157,20335.789 -93.3204343,42.0820495,20263.945 -93.3204529,42.0819185,20192.599 -93.320457,42.0817741,20120.663 -93.3203975,42.0816252,20052.978 -93.3203893,42.0815978,19983.861 -93.320344,42.0814666,19915.952 -93.320164,42.0812887,19848.479 -93.3198516,42.0811755,19779.261 -93.3195887,42.0810685,19711.909 -93.319378,42.0808835,19644.914 -93.3192235,42.0807902,19580.799 -93.3190879,42.0808146,19513.601 -93.3190173,42.080853,19443.261 -93.3190734,42.0809341,19373.311 -93.3191658,42.0810459,19303.118 -93.3193315,42.0811418,19230.538 -93.3194938,42.0812049,19163.301 -93.3194946,42.081212,19094.953 -93.3194711,42.0812435,19029.166 -93.3194836,42.0812984,18962.062 -93.3194668,42.081379,18896.463 -93.3193032,42.0813216,18829.731 -93.3190859,42.0812785,18763.891 -93.3188041,42.0813253,18697.99 -93.3185633,42.081425,18630.662 -93.3183331,42.0814548,18563.669 -93.3179648,42.0814377,18497.549 -93.3176258,42.0814445,18433.508 -93.3172668,42.0815734,18369.565 -93.3169249,42.0816237,18306.546 -93.3166172,42.0816955,18242.798 -93.3163369,42.0817351,18178.759 -93.3160645,42.0817915,18116.546 -93.3158033,42.0818098,18054.418 -93.3156094,42.0818583,17991.604 -93.3154313,42.0819507,17928.356 -93.3153147,42.0820556,17867.991 -93.3152837,42.0821856,17811.659 -93.3152997,42.082277,17752.227 -93.3151497,42.0823348,17692.969 -93.3149957,42.0822227,17633.218 -93.3147597,42.0822079,17572.215 -93.3144609,42.0821887,17511.631 -93.3140974,42.0821132,17454.349 -93.3137906,42.0819748,17399.171 -93.3134144,42.081867,17344.992 -93.3128823,42.0818365,17289.837 -93.3124831,42.0818803,17234.17 -93.3121675,42.0819862,17179.138 -93.3118953,42.0820959,17124.373 -93.3115601,42.082277,17066.952 -93.3112604,42.0824311,17008.823 -93.3108875,42.0826328,16954.663 -93.3104285,42.0828818,16900.606 -93.3099994,42.0830181,16848.714 -93.3096158,42.0831893,16796.72 -93.3092488,42.0833244,16742.946 -93.3089854,42.0834317,16690.103 -93.3086558,42.0834726,16633.731 -93.3082694,42.0835075,16579.301 -93.307869,42.0835366,16528.073 -93.3074459,42.0835106,16475.123 -93.3068515,42.0834392,16421.429 -93.3063324,42.0833815,16367.758 -93.3059649,42.0833392,16316.886 -93.3056666,42.0833867,16263.997 -93.305333,42.0833353,16210.235 -93.3049799,42.0833254,16156.018 -93.3045652,42.0833354,16105.474 -93.3042372,42.0833395,16055.26 -93.3038955,42.0833625,16005.746 -93.3034614,42.0834231,15955.342 -93.3029411,42.0834507,15906.447 -93.3025581,42.0835292,15856.522 -93.3020641,42.0834763,15808.251 -93.3017495,42.0835055,15759.227 -93.3014585,42.083612,15709.136 -93.3012801,42.0836569,15660.592 -93.3009689,42.0837144,15615.213 -93.300468,42.0837464,15567.114 -93.2999245,42.0838435,15521.661 -93.2994434,42.0838466,15474.276 -93.2990219,42.0838464,15427.047 -93.2985994,42.0837978,15382.595 -93.2980993,42.0836824,15334.461 -93.2975451,42.0835612,15286.37 -93.2969384,42.0834714,15235.712 -93.2964429,42.0834595,15184.942 -93.2958523,42.0834092,15136.738 -93.2951813,42.083377,15090.175 -93.2944172,42.0833631,15042.635 -93.2937956,42.0833454,14995.132 -93.2930952,42.0832336,14949.352 -93.2924701,42.0832439,14901.183 -93.2919244,42.083246,14856.095 -93.2913439,42.0833467,14809.391 -93.290817,42.0833412,14762.138 -93.2903424,42.0833166,14715.685 -93.2898261,42.0832792,14670.129 -93.2892421,42.0830693,14626.773 -93.288689,42.0829165,14581.464 -93.2881931,42.0828733,14536.74 -93.2878189,42.0828706,14491.828 -93.2873249,42.0828589,14443.849 -93.2868863,42.0828884,14394.77 -93.286533,42.0829355,14348.981 -93.2858145,42.082952,14303.453 -93.284954,42.0830286,14261.667 -93.2842704,42.0830109,14217.662 -93.2835238,42.0830361,14173.058 -93.2829422,42.0829643,14127.343 -93.2822572,42.0829127,14082.281 -93.281527,42.082863,14038.556 -93.2808041,42.0827054,13997.486 -93.2801543,42.0827125,13953.532 -93.2795707,42.0827234,13910.27 -93.2788065,42.0827772,13869.44 -93.2779593,42.0828676,13830.348 -93.2772301,42.0828617,13787.448 -93.2765896,42.082915,13745.031 -93.2758456,42.0829802,13701.106 -93.2751028,42.0831057,13657.606 -93.2743052,42.0831015,13616.442 -93.2735411,42.0832249,13573.043 -93.2727616,42.0833059,13529.169 -93.2719261,42.0835245,13486.815 -93.2711977,42.0838148,13446.41 -93.2702225,42.0840355,13404.348 -93.2693092,42.0842497,13360.62 -93.2682155,42.0843226,13321.956 -93.2673508,42.0844751,13280.557 -93.2666347,42.0845507,13239.322 -93.2657505,42.084637,13196.16 -93.2648629,42.0847913,13154.773 -93.264016,42.0848515,13112.889 -93.2632047,42.0849703,13069.721 -93.2623557,42.0852055,13027.521 -93.2615403,42.0854901,12985.741 -93.2609345,42.0856708,12943.85 -93.2603335,42.0859069,12903.523 -93.259534,42.0861326,12863.739 -93.2587739,42.0862637,12824.221 -93.2581813,42.0865716,12784.678 -93.2575903,42.0868462,12746.49 -93.2568304,42.0870241,12706.05 -93.2562439,42.087387,12670.224 -93.2558208,42.0876495,12635.938 -93.2553214,42.0879508,12599.524 -93.2546029,42.088136,12559.775 -93.2540219,42.0884118,12519.727 -93.2532597,42.088677,12483.838 -93.25268,42.0887361,12446.477 -93.2520954,42.0889296,12406.571 -93.2515251,42.0890908,12366.457 -93.250941,42.089203,12327.614 -93.250347,42.0894225,12287.907 -93.2497537,42.0896283,12247.353 -93.2491349,42.0898379,12207.857 -93.2484307,42.08998,12169.699 -93.2477228,42.0902187,12133.749 -93.2471406,42.0903275,12094.099 -93.2465666,42.0904326,12056.485 -93.2459799,42.0906155,12019.835 -93.24553,42.0907648,11982.206 -93.2449456,42.0909158,11943.227 -93.2444004,42.091072,11903.227 -93.2438533,42.091279,11864.434 -93.2432049,42.09147,11825.082 -93.2425444,42.0915918,11787.886 -93.2418093,42.0917954,11752.308 -93.24129,42.0918597,11716.518 -93.2407446,42.0920485,11679.664 -93.2402123,42.0922143,11642.97 -93.2395838,42.0923633,11607.079 -93.238984,42.092449,11569.349 -93.2384104,42.0926174,11531.649 -93.2378501,42.0928062,11494.465 -93.2374688,42.0929567,11461.104 -93.2368776,42.0931162,11424.495 -93.2363369,42.0932835,11386.336 -93.235779,42.0934295,11349.528 -93.2353491,42.0935593,11314.696 -93.234804,42.0936801,11278.289 -93.2342574,42.09379,11241.76 -93.2336992,42.0938872,11205.352 -93.2332003,42.093902,11169.761 -93.2326743,42.0940165,11132.317 -93.2321408,42.0940899,11095.907 -93.2315598,42.0941819,11059.915 -93.2310333,42.0943034,11023.127 -93.2306625,42.0944578,10988.461 -93.2300838,42.0946089,10952.37 -93.2295751,42.0948006,10914.971 -93.2291408,42.0950016,10879.467 -93.2285503,42.095176,10843.992 -93.2281531,42.0952435,10811.967 -93.2277217,42.095436,10779.767 -93.2271985,42.0955407,10744.565 -93.2265512,42.0956749,10709.659 -93.226099,42.0958899,10677.028 -93.2257546,42.0960966,10647.799 -93.225242,42.0963211,10615.887 -93.2247749,42.0964176,10580.855 -93.2243119,42.096645,10547.749 -93.2238977,42.0966562,10514.991 -93.2232884,42.0966917,10481.999 -93.2227419,42.0967309,10445.697 -93.2222488,42.0968402,10410.957 -93.2217358,42.0970424,10379.263 -93.2212206,42.0971212,10343.995 -93.2207982,42.0972247,10309.679 -93.2203522,42.0973522,10275.515 -93.2197882,42.0973936,10240.314 -93.2191614,42.0974483,10206.887 -93.2186111,42.0975036,10173.523 -93.2180614,42.0975559,10138.989 -93.217524,42.0975582,10104.99 -93.2170178,42.0976709,10068.838 -93.2165135,42.0977655,10033.654 -93.216102,42.0978065,10000.761 -93.2156366,42.0979227,9967.111 -93.2151125,42.0979909,9931.637 -93.2144689,42.0980614,9899.755 -93.214016,42.0980729,9866.603 -93.2135168,42.0980848,9832.748 -93.2129859,42.0980902,9800.4 -93.212533,42.0981695,9768.603 -93.2119953,42.0981703,9735.066 -93.2115865,42.0980884,9703.386 -93.2109525,42.0979848,9673.894 -93.2102701,42.0979317,9644.28 -93.2097546,42.0978892,9611.837 -93.2092213,42.0978803,9579.162 -93.2086787,42.097831,9546.881 -93.2081385,42.097844,9514.105 -93.207527,42.0978117,9481.387 -93.2070684,42.0977743,9449.041 -93.2064405,42.0977545,9415.466 -93.2059209,42.0976342,9383.337 -93.2053546,42.0976056,9352.408 -93.2046527,42.0975483,9321.761 -93.2040625,42.0974826,9287.698 -93.2035042,42.0974155,9253.712 -93.2029447,42.0973327,9220.533 -93.2023034,42.0972253,9187.874 -93.2016995,42.0971647,9154.901 -93.2011227,42.0970099,9123.416 -93.2005575,42.0969344,9091.502 -93.1999788,42.0967524,9060.116 -93.1993878,42.0965267,9030.044 -93.1988333,42.0964416,8998.395 -93.1981291,42.0963503,8967.548 -93.1974737,42.0962468,8937.39 -93.1968315,42.0960074,8906.341 -93.1961601,42.0958704,8874.397 -93.1954037,42.0957356,8843.966 -93.1947943,42.0957125,8813.779 -93.1940271,42.0956362,8782.976 -93.1933871,42.0956564,8754.653 -93.1927661,42.0955388,8722.699 -93.1922326,42.0954724,8692.172 -93.1915958,42.0953248,8662.296 -93.1910416,42.095307,8632.913 -93.1903234,42.0952147,8603.097 -93.1897869,42.0950906,8575.383 -93.1891212,42.0949889,8544.032 -93.188472,42.0949328,8512.292 -93.1879338,42.0948318,8483.333 -93.1872771,42.0948161,8454.054 -93.1865384,42.0946779,8423.445 -93.1859096,42.0946734,8395.344 -93.1852469,42.0945778,8363.845 -93.1846563,42.0944812,8332.888 -93.1840193,42.0945017,8304.631 -93.1833122,42.0943688,8275.89 -93.1827279,42.0942631,8245.485 -93.1821219,42.0941296,8214.995 -93.1815252,42.0940395,8185.203 -93.1810075,42.0939138,8155.178 -93.1803923,42.0937482,8125.404 -93.179693,42.0936111,8094.354 -93.1791702,42.0933996,8067.434 -93.1785293,42.0933278,8037.641 -93.1778921,42.0931794,8006.504 -93.1771863,42.0930672,7977.217 -93.1765791,42.0929116,7947.459 -93.1758776,42.0928513,7917.773 -93.1752094,42.0926947,7886.851 -93.1745938,42.0925192,7857.068 -93.1745938,42.0925192,7857.068 -93.173458,42.0920341,7805.737 -93.1728304,42.0918929,7775.246 -93.1728304,42.0918929,7775.246 -93.1715538,42.0915739,7722.357 -93.1709453,42.0914561,7690.809 -93.1703714,42.0914326,7662.79 -93.1703714,42.0914326,7662.79 -93.1692362,42.0912234,7606.911 -93.1692362,42.0912234,7606.911 -93.1692362,42.0912234,7606.911 -93.167474,42.0909067,7518.882 -93.167474,42.0909067,7518.882 -93.1662359,42.0906805,7460.554 -93.1656786,42.0906615,7431.766 -93.1650233,42.0906165,7401.676 -93.1643144,42.0905139,7373.895 -93.1636529,42.0905069,7345.225 -93.163131,42.0905159,7318.06 -93.1625814,42.0904815,7288.79 -93.1619308,42.0904806,7260.331 -93.1613328,42.0904775,7231.367 -93.1606382,42.0904175,7204.299 -93.1601372,42.0903786,7176.543 -93.1594269,42.0903376,7148.386 -93.1588411,42.0903383,7118.853 -93.1582089,42.0902463,7090.343 -93.1575091,42.0902571,7060.805 -93.1568822,42.0902315,7030.86 -93.1561293,42.0901893,7002.247 -93.1555597,42.0901669,6973.508 -93.1548219,42.0901456,6943.982 -93.1541539,42.090074,6914.527 -93.1534842,42.0900138,6884.745 -93.152674,42.0899937,6858.09 -93.1519452,42.0899077,6829.492 -93.1514124,42.0899127,6802.299 -93.1508328,42.0899373,6775.045 -93.1500886,42.0898726,6746.701 -93.1494138,42.0898799,6717.552 -93.1488242,42.0898117,6688.753 -93.1481913,42.0898595,6661.233 -93.1475591,42.0897819,6632.934 -93.1471447,42.0898158,6607.001 -93.1465996,42.0898194,6577.291 -93.1461027,42.0897615,6547.896 -93.1456815,42.0897572,6519.386 -93.1451893,42.0897703,6491.397 -93.144629,42.0897096,6465.823 -93.1442637,42.08964,6439.718 -93.1436936,42.0896386,6411.667 -93.143126,42.0895708,6383.587 -93.1427111,42.0895319,6355.264 -93.1421567,42.0895299,6327.048 -93.1417657,42.0895014,6300.428 -93.1411802,42.0893859,6273.029 -93.1407161,42.0893805,6244.689 -93.1400503,42.0893726,6220.177 -93.1394275,42.0893172,6194.879 -93.1389644,42.0893061,6166.428 -93.1386168,42.0892444,6137.625 -93.1381508,42.0892473,6112.612 -93.1377527,42.0891787,6083.325 -93.1374046,42.0890321,6055.901 -93.1369977,42.0889769,6028.826 -93.1366833,42.0888611,6000.603 -93.1363524,42.0887636,5972.113 -93.1360157,42.0887179,5945.325 -93.135775,42.0886189,5917.842 -93.1354454,42.0885435,5889.984 -93.1351569,42.0883895,5863.248 -93.13485,42.0882761,5836.033 -93.1346254,42.0880423,5810.996 -93.1343222,42.0879541,5783.779 -93.1341313,42.0877849,5756.112 -93.1337866,42.0877092,5729.946 -93.1334812,42.0875874,5702.706 -93.1332335,42.0874981,5675.346 -93.1331004,42.0873658,5651.615 -93.1327422,42.0872452,5626.196 -93.1324917,42.0871402,5598.303 -93.1321703,42.0870661,5570.992 -93.1318901,42.0869156,5546.423 -93.1316455,42.0869224,5520.177 -93.1312593,42.0869034,5495.363 -93.1309663,42.0868438,5468.268 -93.1306414,42.0866839,5442.249 -93.1304737,42.086622,5418.394 -93.1300957,42.0866059,5392.728 -93.1298324,42.0865813,5365.974 -93.1294333,42.086482,5339.866 -93.1291988,42.0864824,5315.008 -93.1287805,42.0863936,5290.266 -93.1285706,42.0863247,5266.816 -93.1281962,42.086344,5241.924 -93.12783,42.0862437,5216.706 -93.1273541,42.0862303,5190.25 -93.127027,42.0862115,5165.019 -93.1265481,42.0861893,5140.981 -93.1261788,42.0862661,5115.213 -93.1256786,42.0862738,5090.014 -93.1252864,42.0863888,5064.887 -93.124721,42.0864288,5041.626 -93.1241749,42.0864538,5019.089 -93.1237065,42.0866565,4997.13 -93.1233214,42.0868584,4975.449 -93.1227815,42.0870006,4952.23 -93.1224045,42.0871373,4927.534 -93.121841,42.0873153,4904.459 -93.1214677,42.0874147,4880.355 -93.1210289,42.0876387,4855.7 -93.120659,42.0876987,4832.49 -93.1202125,42.087798,4809.947 -93.1198676,42.0880496,4786.428 -93.1195409,42.0881384,4763.734 -93.119095,42.0881744,4743.346 -93.1187928,42.088275,4721.738 -93.1183386,42.0885022,4697.249 -93.1180162,42.0886728,4673.023 -93.1175722,42.0889093,4648.979 -93.1173156,42.0891439,4625.085 -93.1168627,42.0893229,4600.673 -93.1165179,42.0895968,4576.941 -93.1161369,42.0898503,4553.588 -93.115761,42.0900845,4527.784 -93.1153402,42.0902627,4502.984 -93.115039,42.090489,4479.045 -93.1145733,42.0906733,4455.357 -93.1142711,42.0908769,4432.172 -93.113913,42.0909806,4410.291 -93.1135294,42.0912372,4386.546 -93.1132312,42.0914338,4363.204 -93.1128252,42.0917207,4342.589 -93.1124607,42.091833,4320.115 -93.1121689,42.0920878,4299.302 -93.1117603,42.092406,4278.644 -93.1112955,42.0926998,4258.102 -93.1109265,42.0928238,4236.042 -93.1105807,42.093101,4213.584 -93.1102878,42.0933116,4189.984 -93.1099351,42.0935295,4166.681 -93.1096814,42.093753,4143.952 -93.1093222,42.0938948,4120.85 -93.1090831,42.0941528,4098.403 -93.1087278,42.0943559,4076.34 -93.1085386,42.0946456,4054.975 -93.108194,42.0948524,4032.219 -93.1080374,42.0950003,4012.044 -93.1077535,42.0952992,3990.319 -93.1074876,42.0954401,3968.498 -93.1073582,42.095695,3948.844 -93.1070191,42.0959934,3928.277 -93.1065978,42.096167,3908.542 -93.10634,42.0963303,3886.349 -93.1060034,42.0964682,3865.205 -93.1057682,42.0966714,3842.148 -93.1055476,42.0968456,3819.535 -93.1051769,42.0970917,3797.709 -93.1048501,42.0971858,3777.963 -93.1045055,42.097296,3757.825 -93.1042118,42.0975437,3734.82 -93.1038875,42.0976795,3713.41 -93.1035637,42.097977,3691.978 -93.103279,42.0981567,3669.23 -93.1029828,42.098423,3646.486 -93.1025936,42.0986803,3624.5 -93.1023541,42.0988456,3602.409 -93.1019867,42.0990974,3580.367 -93.1017573,42.0992604,3558.887 -93.1014839,42.0995207,3536.067 -93.1012286,42.099662,3516.033 -93.1007629,42.0998646,3496.76 -93.1003846,42.1001768,3477.405 -93.1001883,42.1004121,3457.981 -93.0998117,42.1005945,3437.144 -93.0995253,42.1009264,3417.363 -93.0993148,42.1011115,3397.253 -93.0988707,42.1012828,3377.847 -93.0985654,42.1015021,3355.012 -93.0982034,42.1017507,3332.651 -93.097995,42.1019381,3312.508 -93.097568,42.1021845,3290.914 -93.0973092,42.1023725,3269.481 -93.0968351,42.1026259,3248.989 -93.0964915,42.1029288,3228.882 -93.0961123,42.1031451,3206.49 -93.0958303,42.1034335,3185.964 -93.0954411,42.1035954,3165.472 -93.0950706,42.1039484,3145.915 -93.094788,42.1042845,3127.843 -93.0943099,42.1045504,3107.763 -93.0939645,42.104722,3087.619 -93.0935569,42.1049893,3065.081 -93.0931785,42.1051183,3046.285 -93.0929154,42.1052965,3027.999 -93.0926138,42.1056277,3009.049 -93.092134,42.10585,2988.565 -93.0918273,42.1060709,2968.573 -93.0913399,42.1063522,2947.899 -93.0909665,42.1064973,2928.27 -93.0906043,42.1067849,2907.665 -93.0900979,42.1070316,2885.603 -93.0897457,42.107327,2865.972 -93.0893506,42.107469,2845.464 -93.088923,42.1077659,2824.121 -93.0886247,42.1079208,2804.852 -93.0881767,42.1080312,2786.194 -93.0876298,42.1082605,2767.365 -93.0872752,42.1085606,2748.408 -93.0868247,42.1088348,2728.36 -93.0864403,42.1089709,2707.049 -93.0860597,42.1092481,2687.648 -93.0856391,42.1093579,2667.092 -93.0853842,42.1095554,2647.748 -93.0849902,42.1098229,2629.126 -93.0845736,42.1099597,2607.511 -93.0841503,42.1101585,2584.858 -93.0838946,42.1102503,2563.529 -93.0836832,42.1103731,2544.249 -93.0832415,42.1104738,2522.259 -93.0829361,42.110664,2501.82 -93.0827196,42.1107253,2481.065 -93.08229,42.1107613,2461.51 -93.0818424,42.1109055,2442.132 -93.0815095,42.1111112,2422.299 -93.0813216,42.1111573,2401.91 -93.0809731,42.111243,2380.38 -93.0807842,42.1113753,2358.914 -93.0803555,42.1114298,2337.752 -93.0800711,42.1114741,2317.781 -93.0798986,42.1116152,2298.536 -93.0796155,42.111746,2277.873 -93.0793555,42.1117934,2254.977 -93.0789756,42.1119171,2234.609 -93.0786993,42.1119349,2212.287 -93.078404,42.1120678,2191.296 -93.0782337,42.1120626,2169.131 -93.0780224,42.1121924,2149.763 -93.0777198,42.1121867,2128.964 -93.0776267,42.1122369,2109.681 -93.0773793,42.112347,2088.932 -93.0771713,42.1123329,2067.613 -93.0768984,42.1124503,2045.869 -93.0765481,42.1124652,2027.022 -93.0762452,42.1126156,2007.462 -93.0761349,42.1127147,1987.84 -93.0758476,42.1127303,1967.364 -93.075646,42.1128821,1945.667 -93.0753922,42.1128802,1925.004 -93.0751058,42.1129833,1902.248 -93.0748447,42.1129687,1881.747 -93.0744566,42.1130698,1863.411 -93.074139,42.11307,1843.678 -93.0740229,42.1130804,1825.294 -93.0738008,42.1130384,1806.695 -93.073393,42.1130758,1788.08 -93.0731091,42.113196,1769.885 -93.0729835,42.113218,1751.036 -93.072795,42.1131938,1732.144 -93.0724133,42.1132316,1712.218 -93.0722016,42.1133586,1693.656 -93.0720706,42.1133975,1675.749 -93.0717444,42.1134664,1654.78 -93.0713659,42.113514,1635.401 -93.0711749,42.1135213,1615.008 -93.0708299,42.1135391,1594.421 -93.0705034,42.1136564,1575.752 -93.0702216,42.1136417,1554.676 -93.0700197,42.1137414,1536.271 -93.0696151,42.1137925,1518.012 -93.0693126,42.1137119,1499.328 -93.0691321,42.1137363,1480.877 -93.0687447,42.1137763,1462.123 -93.0684582,42.113679,1443.753 -93.0681847,42.1137535,1424.397 -93.0678629,42.1136995,1404.699 -93.0676523,42.1137183,1385.741 -93.0672435,42.1136655,1366.475 -93.0670541,42.1136446,1348.878 -93.0667632,42.1137349,1331.431 -93.066316,42.1136956,1312.981 -93.0660143,42.1136168,1295.392 -93.0657224,42.1137028,1276.968 -93.0653123,42.1137954,1259.263 -93.0650403,42.1137616,1239.268 -93.0645475,42.1137479,1221.145 -93.0642447,42.1138354,1203.151 -93.0639171,42.1137807,1185.049 -93.0634237,42.1138204,1166.599 -93.0631154,42.1139178,1148.632 -93.0628321,42.1138482,1129.559 -93.0623839,42.1137636,1112.296 -93.0619382,42.1136914,1095.243 -93.0614894,42.1136186,1077.865 -93.0611632,42.1134706,1058.432 -93.0609841,42.1134188,1040.018 -93.0606264,42.1133799,1018.961 -93.0604499,42.1132981,1000.009 -93.0602449,42.1132916,982.94 -93.0600479,42.1131631,964.578 -93.0596609,42.1130846,946.545 -93.0594338,42.1130627,926.329 -93.0591292,42.1130663,906.175 -93.0589071,42.1130083,885.035 -93.0586494,42.1130417,867.439 -93.0582733,42.1129553,850.945 -93.0580632,42.1128172,834.535 -93.0578263,42.1128325,817.454 -93.0574754,42.1127337,799.341 -93.0572427,42.1127191,780.69 -93.0568759,42.1126258,762.219 -93.056705,42.1125291,744.734 -93.0563788,42.1125344,727.351 -93.056001,42.1125398,711.333 -93.0558385,42.112486,694.111 -93.0555361,42.1123381,677.957 -93.055185,42.112188,662.415 -93.0550033,42.1120929,646.232 -93.0546841,42.1121062,630.39 -93.0543912,42.1119625,614.495 -93.0541315,42.1119544,596.4 -93.0537051,42.1120316,579.075 -93.0534023,42.1121552,561.324 -93.0531971,42.1122592,543.283 -93.0530132,42.1122592,525.705 -93.0527839,42.1122671,509.638 -93.0524184,42.1124006,491.727 -93.0522617,42.1124653,475.997 -93.0519884,42.1126727,459.833 -93.0518059,42.1128851,442.967 -93.0516157,42.1129501,424.729 -93.0513478,42.11302,408.212 -93.0512511,42.1131728,389.882 -93.0509883,42.1133727,372.998 -93.0507336,42.1134105,355.01 -93.0504644,42.1134778,339.046 -93.050261,42.113655,321.617 -93.0501474,42.1136899,305.39 -93.0499079,42.1136925,289.928 -93.0496635,42.1138087,273.987 -93.049608,42.1138795,256.946 -93.0495283,42.1139772,246.41 -93.0495198,42.1139802,247.274 -93.0495212,42.1139775,247.576 -93.0495272,42.1139746,247.937 -93.0495314,42.113973,248.004 -93.049536,42.1139714,248.465 -93.0495386,42.1139688,248.682</coordinates>
            </LineString>
        </Placemark>
    </Document>
</kml>
